{
  "type": "FeatureCollection",
  "features": [
    {
      "type": "Feature",
      "properties": {
        "norad_id": 43706,
        "name": "BEIDOU-3 M17 (C36)",
        "group": "beidou",
        "lat": -50.86532848393376,
        "lon": 71.11224341230562,
        "alt_km": 21523.955799279585,
        "timestamp": "2025-12-17T15:50:10.044960+00:00",
        "meta_object_name": "BEIDOU-3 M17 (C36)",
        "meta_object_id": "2018-093A",
        "meta_epoch": "2025-12-15T07:56:44.520576",
        "meta_mean_motion": 1.86228523,
        "meta_eccentricity": 0.00061371,
        "meta_inclination": 54.1729,
        "meta_ra_of_asc_node": 188.5337,
        "meta_arg_of_pericenter": 307.6759,
        "meta_mean_anomaly": 184.25,
        "meta_ephemeris_type": 0,
        "meta_classification_type": "U",
        "meta_norad_cat_id": 43706,
        "meta_element_set_no": 999,
        "meta_rev_at_epoch": 4811,
        "meta_bstar": 0,
        "meta_mean_motion_dot": 1.13e-06,
        "meta_mean_motion_ddot": 0,
        "tle_line1": "1 43706U 18093A   25349.33107084  .00000113  00000+0  00000+0 0  9993",
        "tle_line2": "2 43706  54.1729 188.5337 0006137 307.6759 184.2500  1.86228523 48110"
      },
      "geometry": {
        "type": "Point",
        "coordinates": [
          71.11224341230562,
          -50.86532848393376
        ]
      }
    },
    {
      "type": "Feature",
      "properties": {
        "norad_id": 43707,
        "name": "BEIDOU-3 M18 (C37)",
        "group": "beidou",
        "lat": -11.292073944087463,
        "lon": -179.84413450078534,
        "alt_km": 21512.683780882657,
        "timestamp": "2025-12-17T15:50:10.044972+00:00",
        "meta_object_name": "BEIDOU-3 M18 (C37)",
        "meta_object_id": "2018-093B",
        "meta_epoch": "2025-12-16T14:33:42.784416",
        "meta_mean_motion": 1.8622677,
        "meta_eccentricity": 0.00063186,
        "meta_inclination": 54.1735,
        "meta_ra_of_asc_node": 188.4822,
        "meta_arg_of_pericenter": 353.2257,
        "meta_mean_anomaly": 6.8349,
        "meta_ephemeris_type": 0,
        "meta_classification_type": "U",
        "meta_norad_cat_id": 43707,
        "meta_element_set_no": 999,
        "meta_rev_at_epoch": 4813,
        "meta_bstar": 0,
        "meta_mean_motion_dot": 1.15e-06,
        "meta_mean_motion_ddot": 0,
        "tle_line1": "1 43707U 18093B   25350.60674519  .00000115  00000+0  00000+0 0  9990",
        "tle_line2": "2 43707  54.1735 188.4822 0006318 353.2257   6.8349  1.86226770 48131"
      },
      "geometry": {
        "type": "Point",
        "coordinates": [
          -179.84413450078534,
          -11.292073944087463
        ]
      }
    },
    {
      "type": "Feature",
      "properties": {
        "norad_id": 44204,
        "name": "BEIDOU-3 IGSO-1 (C38)",
        "group": "beidou",
        "lat": 30.87640970972591,
        "lon": 61.10162004004561,
        "alt_km": 35904.60317212654,
        "timestamp": "2025-12-17T15:50:10.044984+00:00",
        "meta_object_name": "BEIDOU-3 IGSO-1 (C38)",
        "meta_object_id": "2019-023A",
        "meta_epoch": "2025-11-19T14:15:02.708640",
        "meta_mean_motion": 1.00252177,
        "meta_eccentricity": 0.0026966,
        "meta_inclination": 58.4003,
        "meta_ra_of_asc_node": 39.8168,
        "meta_arg_of_pericenter": 221.2202,
        "meta_mean_anomaly": 126.9723,
        "meta_ephemeris_type": 0,
        "meta_classification_type": "U",
        "meta_norad_cat_id": 44204,
        "meta_element_set_no": 999,
        "meta_rev_at_epoch": 510,
        "meta_bstar": 0,
        "meta_mean_motion_dot": -2.26e-06,
        "meta_mean_motion_ddot": 0,
        "tle_line1": "1 44204U 19023A   25323.59378135 -.00000226  00000+0  00000+0 0  9994",
        "tle_line2": "2 44204  58.4003  39.8168 0026966 221.2202 126.9723  1.00252177  5102"
      },
      "geometry": {
        "type": "Point",
        "coordinates": [
          61.10162004004561,
          30.87640970972591
        ]
      }
    },
    {
      "type": "Feature",
      "properties": {
        "norad_id": 44231,
        "name": "BEIDOU-2 G8 (C01)",
        "group": "beidou",
        "lat": 0.9540985126432697,
        "lon": 108.547409596006,
        "alt_km": 35813.474698482365,
        "timestamp": "2025-12-17T15:50:10.045000+00:00",
        "meta_object_name": "BEIDOU-2 G8 (C01)",
        "meta_object_id": "2019-027A",
        "meta_epoch": "2025-12-17T05:27:07.832736",
        "meta_mean_motion": 1.00267064,
        "meta_eccentricity": 0.00087557,
        "meta_inclination": 1.6731,
        "meta_ra_of_asc_node": 74.724,
        "meta_arg_of_pericenter": 258.6065,
        "meta_mean_anomaly": 338.9898,
        "meta_ephemeris_type": 0,
        "meta_classification_type": "U",
        "meta_norad_cat_id": 44231,
        "meta_element_set_no": 999,
        "meta_rev_at_epoch": 2425,
        "meta_bstar": 0,
        "meta_mean_motion_dot": -2.25e-06,
        "meta_mean_motion_ddot": 0,
        "tle_line1": "1 44231U 19027A   25351.22717399 -.00000225  00000+0  00000+0 0  9997",
        "tle_line2": "2 44231   1.6731  74.7240 0008755 258.6065 338.9898  1.00267064 24252"
      },
      "geometry": {
        "type": "Point",
        "coordinates": [
          108.547409596006,
          0.9540985126432697
        ]
      }
    },
    {
      "type": "Feature",
      "properties": {
        "norad_id": 44337,
        "name": "BEIDOU-3 IGSO-2 (C39)",
        "group": "beidou",
        "lat": -52.94468572808687,
        "lon": 93.27385229830907,
        "alt_km": 35768.00440738822,
        "timestamp": "2025-12-17T15:50:10.045012+00:00",
        "meta_object_name": "BEIDOU-3 IGSO-2 (C39)",
        "meta_object_id": "2019-035A",
        "meta_epoch": "2025-12-16T20:46:49.083168",
        "meta_mean_motion": 1.00270089,
        "meta_eccentricity": 0.00374411,
        "meta_inclination": 55.2266,
        "meta_ra_of_asc_node": 160.465,
        "meta_arg_of_pericenter": 202.4261,
        "meta_mean_anomaly": 154.0265,
        "meta_ephemeris_type": 0,
        "meta_classification_type": "U",
        "meta_norad_cat_id": 44337,
        "meta_element_set_no": 999,
        "meta_rev_at_epoch": 2383,
        "meta_bstar": 0,
        "meta_mean_motion_dot": -3.9e-07,
        "meta_mean_motion_ddot": 0,
        "tle_line1": "1 44337U 19035A   25350.86584587 -.00000039  00000+0  00000+0 0  9996",
        "tle_line2": "2 44337  55.2266 160.4650 0037441 202.4261 154.0265  1.00270089 23833"
      },
      "geometry": {
        "type": "Point",
        "coordinates": [
          93.27385229830907,
          -52.94468572808687
        ]
      }
    },
    {
      "type": "Feature",
      "properties": {
        "norad_id": 44542,
        "name": "BEIDOU-3 M24 (C46)",
        "group": "beidou",
        "lat": -45.64550982587772,
        "lon": 141.71461480601516,
        "alt_km": 21531.76204813549,
        "timestamp": "2025-12-17T15:50:10.045023+00:00",
        "meta_object_name": "BEIDOU-3 M24 (C46)",
        "meta_object_id": "2019-061A",
        "meta_epoch": "2025-12-16T03:22:44.327712",
        "meta_mean_motion": 1.86229353,
        "meta_eccentricity": 0.00096014,
        "meta_inclination": 54.4001,
        "meta_ra_of_asc_node": 188.9011,
        "meta_arg_of_pericenter": 24.8001,
        "meta_mean_anomaly": 335.316,
        "meta_ephemeris_type": 0,
        "meta_classification_type": "U",
        "meta_norad_cat_id": 44542,
        "meta_element_set_no": 999,
        "meta_rev_at_epoch": 4238,
        "meta_bstar": 0,
        "meta_mean_motion_dot": 1.15e-06,
        "meta_mean_motion_ddot": 0,
        "tle_line1": "1 44542U 19061A   25350.14079083  .00000115  00000+0  00000+0 0  9998",
        "tle_line2": "2 44542  54.4001 188.9011 0009601  24.8001 335.3160  1.86229353 42381"
      },
      "geometry": {
        "type": "Point",
        "coordinates": [
          141.71461480601516,
          -45.64550982587772
        ]
      }
    },
    {
      "type": "Feature",
      "properties": {
        "norad_id": 44543,
        "name": "BEIDOU-3 M23 (C45)",
        "group": "beidou",
        "lat": -24.94824215073428,
        "lon": 28.302140170777694,
        "alt_km": 21548.559482775043,
        "timestamp": "2025-12-17T15:50:10.045035+00:00",
        "meta_object_name": "BEIDOU-3 M23 (C45)",
        "meta_object_id": "2019-061B",
        "meta_epoch": "2025-12-16T19:20:04.225344",
        "meta_mean_motion": 1.86227685,
        "meta_eccentricity": 0.00060954,
        "meta_inclination": 54.399,
        "meta_ra_of_asc_node": 188.847,
        "meta_arg_of_pericenter": 24.4715,
        "meta_mean_anomaly": 334.1063,
        "meta_ephemeris_type": 0,
        "meta_classification_type": "U",
        "meta_norad_cat_id": 44543,
        "meta_element_set_no": 999,
        "meta_rev_at_epoch": 4239,
        "meta_bstar": 0,
        "meta_mean_motion_dot": 1.15e-06,
        "meta_mean_motion_ddot": 0,
        "tle_line1": "1 44543U 19061B   25350.80560446  .00000115  00000+0  00000+0 0  9990",
        "tle_line2": "2 44543  54.3990 188.8470 0006095  24.4715 334.1063  1.86227685 42394"
      },
      "geometry": {
        "type": "Point",
        "coordinates": [
          28.302140170777694,
          -24.94824215073428
        ]
      }
    }
  ]
}